COSMOS 2058             
1 20465U 90010A   26068.44951663  .00005023  00000+0  29631-3 0  9990
2 20465  82.4670  47.6646 0009374 345.0233  15.0718 15.11318921942203
SL-14 R/B               
1 20466U 90010B   26068.61945142  .00000519  00000+0  60041-4 0  9991
2 20466  82.4987 267.4549 0018538 302.6174  57.3252 14.83568711928471
SL-14 R/B               
1 20511U 90018B   26068.50220682  .00000693  00000+0  83952-4 0  9992
2 20511  82.5202 223.2647 0017676  92.6107 267.7131 14.82144727922558
HST                     
1 20580U 90037B   26068.15977042  .00009063  00000+0  30023-3 0  9999
2 20580  28.4717  43.6133 0001837 120.9992 239.0785 15.29473555773239
SL-16 R/B               
1 20625U 90046B   26068.62649782 -.00000235  00000+0 -96301-4 0  9994
2 20625  70.9987 298.0477 0016234 299.7530  60.1977 14.15012456848385
COSMOS 2084             
1 20663U 90055A   26068.19064644  .00003266  00000+0  23828-3 0  9994
2 20663  62.7921 337.2804 0017128 189.8801 170.1965 15.05648060936245
SL-6 R/B(2)             
1 20666U 90055D   26068.63814034  .00002702  00000+0  21001-3 0  9997
2 20666  62.7825 254.0257 0024727 347.0850  12.9613 15.03594127938184
SL-8 R/B                
1 20775U 90078B   26068.57562764  .00017130  00000+0  50427-3 0  9991
2 20775  82.9005 251.4134 0362313  14.3826 346.7376 14.89054414809282
SL-8 R/B                
1 21088U 91006B   26068.63552226  .00000081  00000+0  65463-4 0  9994
2 21088  82.9466 170.0862 0023086  38.4640  78.1093 13.77494177764065
OKEAN-3                 
1 21397U 91039A   26068.21354824  .00004486  00000+0  31542-3 0  9994
2 21397  82.5189 337.3048 0013991 340.1382  19.9298 15.04799868864967
COSMOS 2151             
1 21422U 91042A   26068.61664271  .00001880  00000+0  14839-3 0  9996
2 21422  82.4931  83.7467 0014001  64.1107 296.1558 15.00103722863183
SL-14 R/B               
1 21423U 91042B   26068.48763864  .00000660  00000+0  80500-4 0  9994
2 21423  82.4922 220.3717 0015771 239.3387 120.6273 14.81829386853040
