CCSDS_OMM_VERS = 2.0
CREATION_DATE  = 
ORIGINATOR     = 

OBJECT_NAME    = COSMOS 2058
OBJECT_ID      = 1990-010A
CENTER_NAME    = EARTH
REF_FRAME      = TEME
TIME_SYSTEM    = UTC
MEAN_ELEMENT_THEORY = SGP/SGP4

EPOCH          = 2026-03-09T10:47:18.236832
MEAN_MOTION    = 15.11318921
ECCENTRICITY   = .00093745
INCLINATION    = 82.4670
RA_OF_ASC_NODE = 47.6646
ARG_OF_PERICENTER = 345.0233
MEAN_ANOMALY   = 15.0718

EPHEMERIS_TYPE = 0
CLASSIFICATION_TYPE = U
NORAD_CAT_ID   = 20465
ELEMENT_SET_NO = 999
REV_AT_EPOCH   = 94220
BSTAR          = .29631294E-3
MEAN_MOTION_DOT = .5023E-4
MEAN_MOTION_DDOT = 0

CCSDS_OMM_VERS = 2.0
CREATION_DATE  = 
ORIGINATOR     = 

OBJECT_NAME    = SL-14 R/B
OBJECT_ID      = 1990-010B
CENTER_NAME    = EARTH
REF_FRAME      = TEME
TIME_SYSTEM    = UTC
MEAN_ELEMENT_THEORY = SGP/SGP4

EPOCH          = 2026-03-09T14:52:00.602688
MEAN_MOTION    = 14.83568711
ECCENTRICITY   = .00185382
INCLINATION    = 82.4987
RA_OF_ASC_NODE = 267.4549
ARG_OF_PERICENTER = 302.6174
MEAN_ANOMALY   = 57.3252

EPHEMERIS_TYPE = 0
CLASSIFICATION_TYPE = U
NORAD_CAT_ID   = 20466
ELEMENT_SET_NO = 999
REV_AT_EPOCH   = 92847
BSTAR          = .60041216E-4
MEAN_MOTION_DOT = .519E-5
MEAN_MOTION_DDOT = 0

CCSDS_OMM_VERS = 2.0
CREATION_DATE  = 
ORIGINATOR     = 

OBJECT_NAME    = SL-14 R/B
OBJECT_ID      = 1990-018B
CENTER_NAME    = EARTH
REF_FRAME      = TEME
TIME_SYSTEM    = UTC
MEAN_ELEMENT_THEORY = SGP/SGP4

EPOCH          = 2026-03-09T12:03:10.669248
MEAN_MOTION    = 14.82144727
ECCENTRICITY   = .00176767
INCLINATION    = 82.5202
RA_OF_ASC_NODE = 223.2647
ARG_OF_PERICENTER = 92.6107
MEAN_ANOMALY   = 267.7131

EPHEMERIS_TYPE = 0
CLASSIFICATION_TYPE = U
NORAD_CAT_ID   = 20511
ELEMENT_SET_NO = 999
REV_AT_EPOCH   = 92255
BSTAR          = .83952142E-4
MEAN_MOTION_DOT = .693E-5
MEAN_MOTION_DDOT = 0

CCSDS_OMM_VERS = 2.0
CREATION_DATE  = 
ORIGINATOR     = 

OBJECT_NAME    = HST
OBJECT_ID      = 1990-037B
CENTER_NAME    = EARTH
REF_FRAME      = TEME
TIME_SYSTEM    = UTC
MEAN_ELEMENT_THEORY = SGP/SGP4

EPOCH          = 2026-03-09T03:50:04.164288
MEAN_MOTION    = 15.29473555
ECCENTRICITY   = .00018372
INCLINATION    = 28.4717
RA_OF_ASC_NODE = 43.6133
ARG_OF_PERICENTER = 120.9992
MEAN_ANOMALY   = 239.0785

EPHEMERIS_TYPE = 0
CLASSIFICATION_TYPE = U
NORAD_CAT_ID   = 20580
ELEMENT_SET_NO = 999
REV_AT_EPOCH   = 77323
BSTAR          = .3002261E-3
MEAN_MOTION_DOT = .9063E-4
MEAN_MOTION_DDOT = 0

CCSDS_OMM_VERS = 2.0
CREATION_DATE  = 
ORIGINATOR     = 

OBJECT_NAME    = SL-16 R/B
OBJECT_ID      = 1990-046B
CENTER_NAME    = EARTH
REF_FRAME      = TEME
TIME_SYSTEM    = UTC
MEAN_ELEMENT_THEORY = SGP/SGP4

EPOCH          = 2026-03-09T15:02:09.411648
MEAN_MOTION    = 14.15012456
ECCENTRICITY   = .00162346
INCLINATION    = 70.9987
RA_OF_ASC_NODE = 298.0477
ARG_OF_PERICENTER = 299.7530
MEAN_ANOMALY   = 60.1977

EPHEMERIS_TYPE = 0
CLASSIFICATION_TYPE = U
NORAD_CAT_ID   = 20625
ELEMENT_SET_NO = 999
REV_AT_EPOCH   = 84838
BSTAR          = -.96300896E-4
MEAN_MOTION_DOT = -.235E-5
MEAN_MOTION_DDOT = 0

CCSDS_OMM_VERS = 2.0
CREATION_DATE  = 
ORIGINATOR     = 

OBJECT_NAME    = COSMOS 2084
OBJECT_ID      = 1990-055A
CENTER_NAME    = EARTH
REF_FRAME      = TEME
TIME_SYSTEM    = UTC
MEAN_ELEMENT_THEORY = SGP/SGP4

EPOCH          = 2026-03-09T04:34:31.852416
MEAN_MOTION    = 15.05648060
ECCENTRICITY   = .00171286
INCLINATION    = 62.7921
RA_OF_ASC_NODE = 337.2804
ARG_OF_PERICENTER = 189.8801
MEAN_ANOMALY   = 170.1965

EPHEMERIS_TYPE = 0
CLASSIFICATION_TYPE = U
NORAD_CAT_ID   = 20663
ELEMENT_SET_NO = 999
REV_AT_EPOCH   = 93624
BSTAR          = .23828299E-3
MEAN_MOTION_DOT = .3266E-4
MEAN_MOTION_DDOT = 0

CCSDS_OMM_VERS = 2.0
CREATION_DATE  = 
ORIGINATOR     = 

OBJECT_NAME    = SL-6 R/B(2)
OBJECT_ID      = 1990-055D
CENTER_NAME    = EARTH
REF_FRAME      = TEME
TIME_SYSTEM    = UTC
MEAN_ELEMENT_THEORY = SGP/SGP4

EPOCH          = 2026-03-09T15:18:55.325376
MEAN_MOTION    = 15.03594127
ECCENTRICITY   = .00247271
INCLINATION    = 62.7825
RA_OF_ASC_NODE = 254.0257
ARG_OF_PERICENTER = 347.0850
MEAN_ANOMALY   = 12.9613

EPHEMERIS_TYPE = 0
CLASSIFICATION_TYPE = U
NORAD_CAT_ID   = 20666
ELEMENT_SET_NO = 999
REV_AT_EPOCH   = 93818
BSTAR          = .21000668E-3
MEAN_MOTION_DOT = .2702E-4
MEAN_MOTION_DDOT = 0

CCSDS_OMM_VERS = 2.0
CREATION_DATE  = 
ORIGINATOR     = 

OBJECT_NAME    = SL-8 R/B
OBJECT_ID      = 1990-078B
CENTER_NAME    = EARTH
REF_FRAME      = TEME
TIME_SYSTEM    = UTC
MEAN_ELEMENT_THEORY = SGP/SGP4

EPOCH          = 2026-03-09T13:48:54.228096
MEAN_MOTION    = 14.89054414
ECCENTRICITY   = .03623133
INCLINATION    = 82.9005
RA_OF_ASC_NODE = 251.4134
ARG_OF_PERICENTER = 14.3826
MEAN_ANOMALY   = 346.7376

EPHEMERIS_TYPE = 0
CLASSIFICATION_TYPE = U
NORAD_CAT_ID   = 20775
ELEMENT_SET_NO = 999
REV_AT_EPOCH   = 80928
BSTAR          = .50426849E-3
MEAN_MOTION_DOT = .1713E-3
MEAN_MOTION_DDOT = 0

CCSDS_OMM_VERS = 2.0
CREATION_DATE  = 
ORIGINATOR     = 

OBJECT_NAME    = SL-8 R/B
OBJECT_ID      = 1991-006B
CENTER_NAME    = EARTH
REF_FRAME      = TEME
TIME_SYSTEM    = UTC
MEAN_ELEMENT_THEORY = SGP/SGP4

EPOCH          = 2026-03-09T15:15:09.123264
MEAN_MOTION    = 13.77494177
ECCENTRICITY   = .00230861
INCLINATION    = 82.9466
RA_OF_ASC_NODE = 170.0862
ARG_OF_PERICENTER = 38.4640
MEAN_ANOMALY   = 78.1093

EPHEMERIS_TYPE = 0
CLASSIFICATION_TYPE = U
NORAD_CAT_ID   = 21088
ELEMENT_SET_NO = 999
REV_AT_EPOCH   = 76406
BSTAR          = .65463212E-4
MEAN_MOTION_DOT = .81E-6
MEAN_MOTION_DDOT = 0

CCSDS_OMM_VERS = 2.0
CREATION_DATE  = 
ORIGINATOR     = 

OBJECT_NAME    = OKEAN-3
OBJECT_ID      = 1991-039A
CENTER_NAME    = EARTH
REF_FRAME      = TEME
TIME_SYSTEM    = UTC
MEAN_ELEMENT_THEORY = SGP/SGP4

EPOCH          = 2026-03-09T05:07:30.567936
MEAN_MOTION    = 15.04799868
ECCENTRICITY   = .00139917
INCLINATION    = 82.5189
RA_OF_ASC_NODE = 337.3048
ARG_OF_PERICENTER = 340.1382
MEAN_ANOMALY   = 19.9298

EPHEMERIS_TYPE = 0
CLASSIFICATION_TYPE = U
NORAD_CAT_ID   = 21397
ELEMENT_SET_NO = 999
REV_AT_EPOCH   = 86496
BSTAR          = .31542419E-3
MEAN_MOTION_DOT = .4486E-4
MEAN_MOTION_DDOT = 0

CCSDS_OMM_VERS = 2.0
CREATION_DATE  = 
ORIGINATOR     = 

OBJECT_NAME    = COSMOS 2151
OBJECT_ID      = 1991-042A
CENTER_NAME    = EARTH
REF_FRAME      = TEME
TIME_SYSTEM    = UTC
MEAN_ELEMENT_THEORY = SGP/SGP4

EPOCH          = 2026-03-09T14:47:57.930144
MEAN_MOTION    = 15.00103722
ECCENTRICITY   = .00140013
INCLINATION    = 82.4931
RA_OF_ASC_NODE = 83.7467
ARG_OF_PERICENTER = 64.1107
MEAN_ANOMALY   = 296.1558

EPHEMERIS_TYPE = 0
CLASSIFICATION_TYPE = U
NORAD_CAT_ID   = 21422
ELEMENT_SET_NO = 999
REV_AT_EPOCH   = 86318
BSTAR          = .14839469E-3
MEAN_MOTION_DOT = .188E-4
MEAN_MOTION_DDOT = 0

CCSDS_OMM_VERS = 2.0
CREATION_DATE  = 
ORIGINATOR     = 

OBJECT_NAME    = SL-14 R/B
OBJECT_ID      = 1991-042B
CENTER_NAME    = EARTH
REF_FRAME      = TEME
TIME_SYSTEM    = UTC
MEAN_ELEMENT_THEORY = SGP/SGP4

EPOCH          = 2026-03-09T11:42:11.978496
MEAN_MOTION    = 14.81829386
ECCENTRICITY   = .00157713
INCLINATION    = 82.4922
RA_OF_ASC_NODE = 220.3717
ARG_OF_PERICENTER = 239.3387
MEAN_ANOMALY   = 120.6273

EPHEMERIS_TYPE = 0
CLASSIFICATION_TYPE = U
NORAD_CAT_ID   = 21423
ELEMENT_SET_NO = 999
REV_AT_EPOCH   = 85304
BSTAR          = .80500485E-4
MEAN_MOTION_DOT = .66E-5
MEAN_MOTION_DDOT = 0

